IRIDIUM 136             
1 42962U 17061H   23364.65827118  .00000351  00000+0  11842-3 0  9991
2 42962  86.3960  41.1637 0002388  94.8639 265.2829 14.34219059325900
